[
  {
    "OBJECT_NAME": "STARLINK-33762",
    "OBJECT_ID": "25069K",
    "EPOCH": "2025-11-11T06:33:23.527872",
    "MEAN_MOTION": 15.30193372,
    "ECCENTRICITY": 0.000126,
    "INCLINATION": 53.1588,
    "RA_OF_ASC_NODE": 332.5838,
    "ARG_OF_PERICENTER": 83.3018,
    "MEAN_ANOMALY": 276.8126,
    "EPHEMERIS_TYPE": 0,
    "CLASSIFICATION_TYPE": "U",
    "NORAD_CAT_ID": 63442,
    "ELEMENT_SET_NO": 999,
    "REV_AT_EPOCH": 3527,
    "BSTAR": 0.001131,
    "MEAN_MOTION_DOT": 0.00033282,
    "MEAN_MOTION_DDOT": 0.0,
    "TLE_LINE1": "1 63442U 25069K   25315.27318898  .00033282  00000+0  11310-2 0  9998",
    "TLE_LINE2": "2 63442  53.1588 332.5838 0001260  83.3018 276.8126 15.30193372 35278",
    "COMMENT": "Grouped by shell and plane from TLE"
  },
  {
    "OBJECT_NAME": "STARLINK-33753",
    "OBJECT_ID": "25069L",
    "EPOCH": "2025-11-11T06:18:11.561184",
    "MEAN_MOTION": 15.30198577,
    "ECCENTRICITY": 0.0001333,
    "INCLINATION": 53.1599,
    "RA_OF_ASC_NODE": 332.5147,
    "ARG_OF_PERICENTER": 97.7744,
    "MEAN_ANOMALY": 262.3408,
    "EPHEMERIS_TYPE": 0,
    "CLASSIFICATION_TYPE": "U",
    "NORAD_CAT_ID": 63443,
    "ELEMENT_SET_NO": 999,
    "REV_AT_EPOCH": 3526,
    "BSTAR": 0.00026263999999999997,
    "MEAN_MOTION_DOT": 7.427e-05,
    "MEAN_MOTION_DDOT": 0.0,
    "TLE_LINE1": "1 63443U 25069L   25315.26263381  .00007427  00000+0  26264-3 0  9991",
    "TLE_LINE2": "2 63443  53.1599 332.5147 0001333  97.7744 262.3408 15.30198577 35264",
    "COMMENT": "Grouped by shell and plane from TLE"
  },
  {
    "OBJECT_NAME": "STARLINK-33747",
    "OBJECT_ID": "25069M",
    "EPOCH": "2025-11-11T06:09:04.250880",
    "MEAN_MOTION": 15.30212778,
    "ECCENTRICITY": 0.0001239,
    "INCLINATION": 53.1598,
    "RA_OF_ASC_NODE": 332.4747,
    "ARG_OF_PERICENTER": 92.2203,
    "MEAN_ANOMALY": 267.894,
    "EPHEMERIS_TYPE": 0,
    "CLASSIFICATION_TYPE": "U",
    "NORAD_CAT_ID": 63444,
    "ELEMENT_SET_NO": 999,
    "REV_AT_EPOCH": 3522,
    "BSTAR": 0.00062874,
    "MEAN_MOTION_DOT": 0.00018316,
    "MEAN_MOTION_DDOT": 0.0,
    "TLE_LINE1": "1 63444U 25069M   25315.25629920  .00018316  00000+0  62874-3 0  9992",
    "TLE_LINE2": "2 63444  53.1598 332.4747 0001239  92.2203 267.8940 15.30212778 35221",
    "COMMENT": "Grouped by shell and plane from TLE"
  },
  {
    "OBJECT_NAME": "STARLINK-33659",
    "OBJECT_ID": "25069N",
    "EPOCH": "2025-11-11T07:03:47.013696",
    "MEAN_MOTION": 15.30208477,
    "ECCENTRICITY": 0.0001155,
    "INCLINATION": 53.1591,
    "RA_OF_ASC_NODE": 332.7152,
    "ARG_OF_PERICENTER": 88.9815,
    "MEAN_ANOMALY": 271.1318,
    "EPHEMERIS_TYPE": 0,
    "CLASSIFICATION_TYPE": "U",
    "NORAD_CAT_ID": 63445,
    "ELEMENT_SET_NO": 999,
    "REV_AT_EPOCH": 3522,
    "BSTAR": 0.002051,
    "MEAN_MOTION_DOT": 0.00060902,
    "MEAN_MOTION_DDOT": 0.0,
    "TLE_LINE1": "1 63445U 25069N   25315.29429414  .00060902  00000+0  20510-2 0  9991",
    "TLE_LINE2": "2 63445  53.1591 332.7152 0001155  88.9815 271.1318 15.30208477 35224",
    "COMMENT": "Grouped by shell and plane from TLE"
  },
  {
    "OBJECT_NAME": "STARLINK-33746",
    "OBJECT_ID": "25069P",
    "EPOCH": "2025-11-11T06:25:47.424864",
    "MEAN_MOTION": 15.30199302,
    "ECCENTRICITY": 0.0001215,
    "INCLINATION": 53.1586,
    "RA_OF_ASC_NODE": 332.5456,
    "ARG_OF_PERICENTER": 74.773,
    "MEAN_ANOMALY": 285.3405,
    "EPHEMERIS_TYPE": 0,
    "CLASSIFICATION_TYPE": "U",
    "NORAD_CAT_ID": 63446,
    "ELEMENT_SET_NO": 999,
    "REV_AT_EPOCH": 3522,
    "BSTAR": 0.0006993300000000001,
    "MEAN_MOTION_DOT": 0.0002041,
    "MEAN_MOTION_DDOT": 0.0,
    "TLE_LINE1": "1 63446U 25069P   25315.26791001  .00020410  00000+0  69933-3 0  9996",
    "TLE_LINE2": "2 63446  53.1586 332.5456 0001215  74.7730 285.3405 15.30199302 35220",
    "COMMENT": "Grouped by shell and plane from TLE"
  },
  {
    "OBJECT_NAME": "STARLINK-33799",
    "OBJECT_ID": "25069Q",
    "EPOCH": "2025-11-11T07:00:44.473824",
    "MEAN_MOTION": 15.30206329,
    "ECCENTRICITY": 0.0001391,
    "INCLINATION": 53.1593,
    "RA_OF_ASC_NODE": 332.7026,
    "ARG_OF_PERICENTER": 110.5771,
    "MEAN_ANOMALY": 249.5379,
    "EPHEMERIS_TYPE": 0,
    "CLASSIFICATION_TYPE": "U",
    "NORAD_CAT_ID": 63447,
    "ELEMENT_SET_NO": 999,
    "REV_AT_EPOCH": 3516,
    "BSTAR": 0.0011204000000000001,
    "MEAN_MOTION_DOT": 0.00032978,
    "MEAN_MOTION_DDOT": 0.0,
    "TLE_LINE1": "1 63447U 25069Q   25315.29218141  .00032978  00000+0  11204-2 0  9998",
    "TLE_LINE2": "2 63447  53.1593 332.7026 0001391 110.5771 249.5379 15.30206329 35166",
    "COMMENT": "Grouped by shell and plane from TLE"
  },
  {
    "OBJECT_NAME": "STARLINK-33797",
    "OBJECT_ID": "25069R",
    "EPOCH": "2025-11-11T07:34:00.744096",
    "MEAN_MOTION": 15.30213718,
    "ECCENTRICITY": 0.000125,
    "INCLINATION": 53.161,
    "RA_OF_ASC_NODE": 332.1307,
    "ARG_OF_PERICENTER": 85.4367,
    "MEAN_ANOMALY": 274.6777,
    "EPHEMERIS_TYPE": 0,
    "CLASSIFICATION_TYPE": "U",
    "NORAD_CAT_ID": 63448,
    "ELEMENT_SET_NO": 999,
    "REV_AT_EPOCH": 3523,
    "BSTAR": 0.00067522,
    "MEAN_MOTION_DOT": 0.000197,
    "MEAN_MOTION_DDOT": 0.0,
    "TLE_LINE1": "1 63448U 25069R   25315.31528639  .00019700  00000+0  67522-3 0  9991",
    "TLE_LINE2": "2 63448  53.1610 332.1307 0001250  85.4367 274.6777 15.30213718 35237",
    "COMMENT": "Grouped by shell and plane from TLE"
  },
  {
    "OBJECT_NAME": "STARLINK-33798",
    "OBJECT_ID": "25069S",
    "EPOCH": "2025-11-11T07:05:17.867616",
    "MEAN_MOTION": 15.30215361,
    "ECCENTRICITY": 0.0001027,
    "INCLINATION": 53.1608,
    "RA_OF_ASC_NODE": 332.702,
    "ARG_OF_PERICENTER": 98.4075,
    "MEAN_ANOMALY": 261.7042,
    "EPHEMERIS_TYPE": 0,
    "CLASSIFICATION_TYPE": "U",
    "NORAD_CAT_ID": 63449,
    "ELEMENT_SET_NO": 999,
    "REV_AT_EPOCH": 3500,
    "BSTAR": 0.0010577,
    "MEAN_MOTION_DOT": 0.00031113,
    "MEAN_MOTION_DDOT": 0.0,
    "TLE_LINE1": "1 63449U 25069S   25315.29534569  .00031113  00000+0  10577-2 0  9997",
    "TLE_LINE2": "2 63449  53.1608 332.7020 0001027  98.4075 261.7042 15.30215361 35008",
    "COMMENT": "Grouped by shell and plane from TLE"
  },
  {
    "OBJECT_NAME": "STARLINK-33736",
    "OBJECT_ID": "25069T",
    "EPOCH": "2025-11-11T07:24:53.655840",
    "MEAN_MOTION": 15.3021586,
    "ECCENTRICITY": 0.0001383,
    "INCLINATION": 53.1611,
    "RA_OF_ASC_NODE": 332.0903,
    "ARG_OF_PERICENTER": 87.3238,
    "MEAN_ANOMALY": 272.7921,
    "EPHEMERIS_TYPE": 0,
    "CLASSIFICATION_TYPE": "U",
    "NORAD_CAT_ID": 63450,
    "ELEMENT_SET_NO": 999,
    "REV_AT_EPOCH": 3523,
    "BSTAR": 0.00039344,
    "MEAN_MOTION_DOT": 0.00011317,
    "MEAN_MOTION_DDOT": 0.0,
    "TLE_LINE1": "1 63450U 25069T   25315.30895435  .00011317  00000+0  39344-3 0  9991",
    "TLE_LINE2": "2 63450  53.1611 332.0903 0001383  87.3238 272.7921 15.30215860 35237",
    "COMMENT": "Grouped by shell and plane from TLE"
  },
  {
    "OBJECT_NAME": "STARLINK-33740",
    "OBJECT_ID": "25069U",
    "EPOCH": "2025-11-11T06:21:13.728672",
    "MEAN_MOTION": 15.30205134,
    "ECCENTRICITY": 0.0001215,
    "INCLINATION": 53.1594,
    "RA_OF_ASC_NODE": 332.5255,
    "ARG_OF_PERICENTER": 81.7364,
    "MEAN_ANOMALY": 278.3774,
    "EPHEMERIS_TYPE": 0,
    "CLASSIFICATION_TYPE": "U",
    "NORAD_CAT_ID": 63451,
    "ELEMENT_SET_NO": 999,
    "REV_AT_EPOCH": 3516,
    "BSTAR": 0.0006846,
    "MEAN_MOTION_DOT": 0.00019974,
    "MEAN_MOTION_DDOT": 0.0,
    "TLE_LINE1": "1 63451U 25069U   25315.26474223  .00019974  00000+0  68460-3 0  9993",
    "TLE_LINE2": "2 63451  53.1594 332.5255 0001215  81.7364 278.3774 15.30205134 35168",
    "COMMENT": "Grouped by shell and plane from TLE"
  },
  {
    "OBJECT_NAME": "STARLINK-33763",
    "OBJECT_ID": "25069V",
    "EPOCH": "2025-11-11T07:32:29.223168",
    "MEAN_MOTION": 15.30214072,
    "ECCENTRICITY": 9.69e-05,
    "INCLINATION": 53.1619,
    "RA_OF_ASC_NODE": 332.1078,
    "ARG_OF_PERICENTER": 95.323,
    "MEAN_ANOMALY": 264.7881,
    "EPHEMERIS_TYPE": 0,
    "CLASSIFICATION_TYPE": "U",
    "NORAD_CAT_ID": 63452,
    "ELEMENT_SET_NO": 999,
    "REV_AT_EPOCH": 3528,
    "BSTAR": 0.0010875,
    "MEAN_MOTION_DOT": 0.00032001,
    "MEAN_MOTION_DDOT": 0.0,
    "TLE_LINE1": "1 63452U 25069V   25315.31422712  .00032001  00000+0  10875-2 0  9998",
    "TLE_LINE2": "2 63452  53.1619 332.1078 0000969  95.3230 264.7881 15.30214072 35286",
    "COMMENT": "Grouped by shell and plane from TLE"
  },
  {
    "OBJECT_NAME": "STARLINK-33784",
    "OBJECT_ID": "25069W",
    "EPOCH": "2025-11-11T06:59:13.377984",
    "MEAN_MOTION": 15.30207951,
    "ECCENTRICITY": 0.0001304,
    "INCLINATION": 53.1596,
    "RA_OF_ASC_NODE": 332.6906,
    "ARG_OF_PERICENTER": 69.7926,
    "MEAN_ANOMALY": 290.3215,
    "EPHEMERIS_TYPE": 0,
    "CLASSIFICATION_TYPE": "U",
    "NORAD_CAT_ID": 63453,
    "ELEMENT_SET_NO": 999,
    "REV_AT_EPOCH": 3527,
    "BSTAR": 0.00032479000000000004,
    "MEAN_MOTION_DOT": 9.275e-05,
    "MEAN_MOTION_DDOT": 0.0,
    "TLE_LINE1": "1 63453U 25069W   25315.29112706  .00009275  00000+0  32479-3 0  9997",
    "TLE_LINE2": "2 63453  53.1596 332.6906 0001304  69.7926 290.3215 15.30207951 35270",
    "COMMENT": "Grouped by shell and plane from TLE"
  },
  {
    "OBJECT_NAME": "STARLINK-33768",
    "OBJECT_ID": "25069X",
    "EPOCH": "2025-11-11T06:16:38.190432",
    "MEAN_MOTION": 15.3021829,
    "ECCENTRICITY": 0.0001604,
    "INCLINATION": 53.1604,
    "RA_OF_ASC_NODE": 332.49,
    "ARG_OF_PERICENTER": 104.2001,
    "MEAN_ANOMALY": 255.9178,
    "EPHEMERIS_TYPE": 0,
    "CLASSIFICATION_TYPE": "U",
    "NORAD_CAT_ID": 63454,
    "ELEMENT_SET_NO": 999,
    "REV_AT_EPOCH": 3527,
    "BSTAR": 0.0,
    "MEAN_MOTION_DOT": -0.00022496,
    "MEAN_MOTION_DDOT": 0.0,
    "TLE_LINE1": "1 63454U 25069X   25315.26155313 -.00022496  00000+0 -74922-3 0  9997",
    "TLE_LINE2": "2 63454  53.1604 332.4900 0001604 104.2001 255.9178 15.30218290 35278",
    "COMMENT": "Grouped by shell and plane from TLE"
  }
]